X,Y,code,lat,lon,elevation,station_name,STATEFP,UNSDLEA,AFFGEOID,GEOID,district,LSAD,ALAND,AWATER
-80.05750,39.15030,US1WVBB0001,39.15030,-80.05750,433.40000,WV PHILIPPI 0.7,54,00030,9700000US5400030,5400030,Barbour County School District,00,883338731,4639232
-80.59660,40.26800,US1WVBK0001,40.26800,-80.59660,303.30000,WV WELLSBURG 1.2,54,00150,9700000US5400150,5400150,Brooke County School District,00,231034166,8714144
-81.86750,37.98770,US1WVBN0001,37.98770,-81.86750,268.20000,WV DANVILLE 6.7,54,00090,9700000US5400090,5400090,Boone County School District,00,1298967375,4305976
-81.62280,38.10790,US1WVBN0002,38.10790,-81.62280,221.00000,WV SETH SE 0.0,54,00090,9700000US5400090,5400090,Boone County School District,00,1298967375,4305976
-78.06800,39.33680,US1WVBY0001,39.33680,-78.06800,196.90000,WV BUNKER HILL 0.8,54,00060,9700000US5400060,5400060,Berkeley County School District,00,831766637,1061824
-77.91810,39.58750,US1WVBY0002,39.58750,-77.91810,149.40000,WV FALLING WATERS 2.4,54,00060,9700000US5400060,5400060,Berkeley County School District,00,831766637,1061824
-77.83620,39.51360,US1WVBY0004,39.51360,-77.83620,135.30000,WV MARTINSBURG 8.0,54,00060,9700000US5400060,5400060,Berkeley County School District,00,831766637,1061824
-77.89050,39.44860,US1WVBY0006,39.44860,-77.89050,144.50000,WV MARTINSBURG 4.3,54,00060,9700000US5400060,5400060,Berkeley County School District,00,831766637,1061824
-82.38130,38.40600,US1WVCB0002,38.40600,-82.38130,178.60000,WV HUNTINGTON 2.9,54,00180,9700000US5400180,5400180,Cabell County School District,00,727838071,18122000
-82.29390,38.43470,US1WVCB0006,38.43470,-82.29390,177.10000,WV HUNTINGTON 7.7,54,00180,9700000US5400180,5400180,Cabell County School District,00,727838071,18122000
-82.44430,38.40820,US1WVCB0008,38.40820,-82.44430,173.40000,WV HUNTINGTON 0.6,54,00180,9700000US5400180,5400180,Cabell County School District,00,727838071,18122000
-82.43400,38.39800,US1WVCB0011,38.39800,-82.43400,267.60000,WV HUNTINGTON 1.0,54,00180,9700000US5400180,5400180,Cabell County School District,00,727838071,18122000
-81.15970,38.48310,US1WVCY0001,38.48310,-81.15970,230.40000,WV PROCIOUS 2.4,54,00240,9700000US5400240,5400240,Clay County School District,00,885617251,4862445
-80.65610,39.41950,US1WVDD0001,39.41950,-80.65610,252.10000,WV CENTER POINT 2.2,54,00270,9700000US5400270,5400270,Doddridge County School District,00,828070519,1958441
-80.68300,39.39100,US1WVDD0002,39.39100,-80.68300,239.90000,WV WEST UNION 8.2,54,00270,9700000US5400270,5400270,Doddridge County School District,00,828070519,1958441
-80.69260,39.35330,US1WVDD0003,39.35330,-80.69260,258.50000,WV WEST UNION 5.9,54,00270,9700000US5400270,5400270,Doddridge County School District,00,828070519,1958441
-80.70680,39.12550,US1WVDD0004,39.12550,-80.70680,284.70000,WV AUBURN 8.3,54,00270,9700000US5400270,5400270,Doddridge County School District,00,828070519,1958441
-80.63450,39.29960,US1WVDD0006,39.29960,-80.63450,289.90000,WV SALEM 3.9,54,00270,9700000US5400270,5400270,Doddridge County School District,00,828070519,1958441
-81.11000,38.06000,US1WVFY0001,38.06000,-81.11000,519.10000,WV FAYETTEVILLE 0.6,54,00300,9700000US5400300,5400300,Fayette County School District,00,1713494053,17519186
-80.42320,37.70590,US1WVGB0002,37.70590,-80.42320,700.10000,WV RONCEVERTE 4.0,54,00390,9700000US5400390,5400390,Greenbrier County School District,00,-1654077674,12578200
-80.76670,37.97050,US1WVGB0004,37.97050,-80.76670,746.20000,WV RAINELLE 0.3,54,00390,9700000US5400390,5400390,Greenbrier County School District,00,-1654077674,12578200
-80.75060,39.06540,US1WVGL0002,39.06540,-80.75060,266.10000,WV TROY 3.2,54,00330,9700000US5400330,5400330,Gilmer County School District,00,876717634,4082111
-80.78200,39.08910,US1WVGL0003,39.08910,-80.78200,246.00000,WV AUBURN 4.0,54,00330,9700000US5400330,5400330,Gilmer County School District,00,876717634,4082111
-78.65210,39.44320,US1WVHM0001,39.44320,-78.65210,185.90000,WV SPRINGFIELD 2.3,54,00420,9700000US5400420,5400420,Hampshire County School District,00,1658614732,10922070
-78.50160,39.34820,US1WVHM0002,39.34820,-78.50160,236.20000,WV SLANESVILLE 2.1,54,00420,9700000US5400420,5400420,Hampshire County School District,00,1658614732,10922070
-78.73860,39.41360,US1WVHM0004,39.41360,-78.73860,199.90000,WV SPRINGFIELD 3.5,54,00420,9700000US5400420,5400420,Hampshire County School District,00,1658614732,10922070
-80.56480,40.60900,US1WVHN0003,40.60900,-80.56480,238.70000,WV CHESTER 0.2,54,00450,9700000US5400450,5400450,Hancock County School District,00,213957141,13879330
-80.37820,39.26630,US1WVHS0003,39.26630,-80.37820,330.10000,WV CLARKSBURG 2.7,54,00510,9700000US5400510,5400510,Harrison County School District,00,1077454917,1320319
-80.26770,39.30570,US1WVHS0006,39.30570,-80.26770,371.20000,WV BRIDGEPORT 1.1,54,00510,9700000US5400510,5400510,Harrison County School District,00,1077454917,1320319
-80.49360,39.37820,US1WVHS0009,39.37820,-80.49360,332.50000,WV WALLACE 2.2,54,00510,9700000US5400510,5400510,Harrison County School District,00,1077454917,1320319
-79.04960,39.04320,US1WVHY0002,39.04320,-79.04960,339.90000,WV RIG 0.4,54,00480,9700000US5400480,5400480,Hardy County School District,00,1508194649,5617193
-78.94510,39.01130,US1WVHY0003,39.01130,-78.94510,306.90000,WV MOOREFIELD 3.7,54,00480,9700000US5400480,5400480,Hardy County School District,00,1508194649,5617193
-81.73450,38.80830,US1WVJC0001,38.80830,-81.73450,298.40000,WV RIPLEY 1.6,54,00540,9700000US5400540,5400540,Jackson County School District,00,1202677932,18836099
-81.69040,38.73770,US1WVJC0003,38.73770,-81.69040,283.50000,WV RIPLEY 5.8,54,00540,9700000US5400540,5400540,Jackson County School District,00,1202677932,18836099
-81.55160,38.76440,US1WVJC0007,38.76440,-81.55160,243.80000,WV GAY 0.4,54,00540,9700000US5400540,5400540,Jackson County School District,00,1202677932,18836099
-77.78820,39.33860,US1WVJF0002,39.33860,-77.78820,133.50000,WV HARPERS FERRY 2.6,54,00570,9700000US5400570,5400570,Jefferson County School District,00,543006593,5216623
-77.85520,39.35440,US1WVJF0003,39.35440,-77.85520,167.00000,WV SHENANDOAH JUNCTION,54,00570,9700000US5400570,5400570,Jefferson County School District,00,543006593,5216623
-77.82680,39.31910,US1WVJF0005,39.31910,-77.82680,144.50000,WV CHARLES TOWN 2.9,54,00570,9700000US5400570,5400570,Jefferson County School District,00,543006593,5216623
-77.83040,39.31540,US1WVJF0006,39.31540,-77.83040,149.40000,WV CHARLES TOWN 2.5,54,00570,9700000US5400570,5400570,Jefferson County School District,00,543006593,5216623
-77.90810,39.29220,US1WVJF0007,39.29220,-77.90810,171.90000,WV CHARLES TOWN 2.7,54,00570,9700000US5400570,5400570,Jefferson County School District,00,543006593,5216623
-81.78740,38.28720,US1WVKN0001,38.28720,-81.78740,216.10000,WV ALUM CREEK 3.0,54,00600,9700000US5400600,5400600,Kanawha County School District,00,-1959751630,24056487
-81.75060,38.29820,US1WVKN0002,38.29820,-81.75060,326.40000,WV SOUTH CHARLESTON 4.7,54,00600,9700000US5400600,5400600,Kanawha County School District,00,-1959751630,24056487
-81.80930,38.37590,US1WVKN0009,38.37590,-81.80930,189.00000,WV ST.,54,00600,9700000US5400600,5400600,Kanawha County School District,00,-1959751630,24056487
-81.72690,38.32250,US1WVKN0010,38.32250,-81.72690,256.30000,WV SOUTH CHARLESTON 2.6,54,00600,9700000US5400600,5400600,Kanawha County School District,00,-1959751630,24056487
-81.90170,38.34480,US1WVKN0018,38.34480,-81.90170,215.50000,WV ST.,54,00600,9700000US5400600,5400600,Kanawha County School District,00,-1959751630,24056487
-81.85250,38.36100,US1WVKN0019,38.36100,-81.85250,195.10000,WV ST.,54,00600,9700000US5400600,5400600,Kanawha County School District,00,-1959751630,24056487
-81.69870,38.33350,US1WVKN0021,38.33350,-81.69870,243.50000,WV CHARLESTON 3.9,54,00600,9700000US5400600,5400600,Kanawha County School District,00,-1959751630,24056487
-81.53130,38.38070,US1WVKN0025,38.38070,-81.53130,240.20000,WV CHARLESTON 5.8,54,00600,9700000US5400600,5400600,Kanawha County School District,00,-1959751630,24056487
-81.75190,38.34990,US1WVKN0026,38.34990,-81.75190,243.50000,WV SOUTH CHARLESTON 2.5,54,00600,9700000US5400600,5400600,Kanawha County School District,00,-1959751630,24056487
-81.54500,38.38320,US1WVKN0027,38.38320,-81.54500,282.90000,WV PINCH 3.9,54,00600,9700000US5400600,5400600,Kanawha County School District,00,-1959751630,24056487
-82.11160,38.18640,US1WVLN0003,38.18640,-82.11160,215.80000,WV BRANCHLAND 5.5,54,00660,9700000US5400660,5400660,Lincoln County School District,00,1131925075,4023478
-80.67720,38.98900,US1WVLW0001,38.98900,-80.67720,285.30000,WV LINN 2.6,54,00630,9700000US5400630,5400630,Lewis County School District,00,1002071716,7108412
-80.43250,39.10280,US1WVLW0002,39.10280,-80.43250,330.10000,WV JANE LEW 1.3,54,00630,9700000US5400630,5400630,Lewis County School District,00,1002071716,7108412
-80.39630,38.83940,US1WVLW0004,38.83940,-80.39630,487.10000,WV CRAWFORD 2.9,54,00630,9700000US5400630,5400630,Lewis County School District,00,1002071716,7108412
-80.16940,39.44390,US1WVMA0001,39.44390,-80.16940,313.60000,WV FAIRMONT 2.8,54,00720,9700000US5400720,5400720,Marion County School District,00,799642461,7186185
-80.20240,39.46610,US1WVMA0002,39.46610,-80.20240,389.50000,WV MONONGAH 0.9,54,00720,9700000US5400720,5400720,Marion County School District,00,799642461,7186185
-80.24520,39.59820,US1WVMA0007,39.59820,-80.24520,313.30000,WV FAIRVIEW 0.4,54,00720,9700000US5400720,5400720,Marion County School District,00,799642461,7186185
-81.23320,37.25280,US1WVMC0003,37.25280,-81.23320,768.10000,WV BLUEFIELD 1.0,54,00840,9700000US5400840,5400840,Mercer County School District,00,1085116214,4432246
-79.91660,39.59240,US1WVMG0001,39.59240,-79.91660,399.00000,WV MORGANTOWN 3.5,54,00930,9700000US5400930,5400930,Monongalia School District,00,932572492,15051916
-79.92820,39.62920,US1WVMG0005,39.62920,-79.92820,282.20000,WV MORGANTOWN 1.2,54,00930,9700000US5400930,5400930,Monongalia School District,00,932572492,15051916
-80.62100,39.97600,US1WVMH0002,39.97600,-80.62100,269.40000,WV MCMECHEN 6.0,54,00750,9700000US5400750,5400750,Marshall County School District,00,791063503,17411500
-78.92160,39.42690,US1WVML0002,39.42690,-78.92160,280.40000,WV KEYSER 3.4,54,00870,9700000US5400870,5400870,Mineral County School District,00,849173056,3502975
-79.00280,39.41420,US1WVML0003,39.41420,-79.00280,273.70000,WV KEYSER 2.0,54,00870,9700000US5400870,5400870,Mineral County School District,00,849173056,3502975
-78.81240,39.54540,US1WVML0005,39.54540,-78.81240,249.60000,WV KEYSER 11.7,54,00870,9700000US5400870,5400870,Mineral County School District,00,849173056,3502975
-82.02250,38.86110,US1WVMS0001,38.86110,-82.02250,207.00000,WV POINT PLEASANT 5.8,54,00780,9700000US5400780,5400780,Mason County School District,00,1115633279,36174541
-82.03490,39.00300,US1WVMS0002,39.00300,-82.03490,250.90000,WV CLIFTON 0.4,54,00780,9700000US5400780,5400780,Mason County School District,00,1115633279,36174541
-80.94300,38.20280,US1WVNC0001,38.20280,-80.94300,522.70000,WV SUMMERSVILLE 7.8,54,01020,9700000US5401020,5401020,Nicholas County School District,00,1675296013,19608975
-80.71950,38.25400,US1WVNC0002,38.25400,-80.71950,755.00000,WV CANVAS 3.1,54,01020,9700000US5401020,5401020,Nicholas County School District,00,1675296013,19608975
-80.85370,38.14270,US1WVNC0003,38.14270,-80.85370,671.80000,WV RUNA 0.1,54,01020,9700000US5401020,5401020,Nicholas County School District,00,1675296013,19608975
-80.64520,38.33700,US1WVNC0004,38.33700,-80.64520,682.80000,WV CRAIGSVILLE 0.6,54,01020,9700000US5401020,5401020,Nicholas County School District,00,1675296013,19608975
-80.65610,40.13820,US1WVOH0002,40.13820,-80.65610,346.30000,WV WHEELING 4.9,54,01050,9700000US5401050,5401050,Ohio County School District,00,274098955,8274300
-79.82670,38.44550,US1WVPC0001,38.44550,-79.82670,816.90000,WV ARBOVALE 0.8,54,01140,9700000US5401140,5401140,Pocahontas County School District,00,-1859645108,3978619
-80.05880,38.28420,US1WVPC0003,38.28420,-80.05880,794.90000,WV MARLINTON 4.5,54,01140,9700000US5401140,5401140,Pocahontas County School District,00,-1859645108,3978619
-79.96210,38.35660,US1WVPC0004,38.35660,-79.96210,735.80000,WV CASS 3.7,54,01140,9700000US5401140,5401140,Pocahontas County School District,00,-1859645108,3978619
-79.14280,38.71820,US1WVPN0001,38.71820,-79.14280,544.40000,WV FORT SEYBERT 3.0,54,01080,9700000US5401080,5401080,Pendleton County School District,00,1802751456,5437237
-79.68970,39.36080,US1WVPR0003,39.36080,-79.68970,435.90000,WV ROWLESBURG 1.1,54,01170,9700000US5401170,5401170,Preston County School District,00,1680406633,6681831
-79.67160,39.47200,US1WVPR0008,39.47200,-79.67160,536.10000,WV KINGWOOD 0.6,54,01170,9700000US5401170,5401170,Preston County School District,00,1680406633,6681831
-81.97450,38.45100,US1WVPT0004,38.45100,-81.97450,212.10000,WV HURRICANE 2.5,54,01200,9700000US5401200,5401200,Putnam County School District,00,895302287,12226982
-81.89650,38.52490,US1WVPT0006,38.52490,-81.89650,181.10000,WV WINFIELD 0.7,54,01200,9700000US5401200,5401200,Putnam County School District,00,895302287,12226982
-81.90670,38.42620,US1WVPT0007,38.42620,-81.90670,297.20000,WV TEAYS VALLEY 1.9,54,01200,9700000US5401200,5401200,Putnam County School District,00,895302287,12226982
-81.17420,37.77700,US1WVRL0002,37.77700,-81.17420,721.50000,WV BECKLEY 1.0,54,01230,9700000US5401230,5401230,Raleigh County School District,00,1567864566,10336250
-81.09030,37.66270,US1WVRL0006,37.66270,-81.09030,903.70000,WV COOL RIDGE 0.4,54,01230,9700000US5401230,5401230,Raleigh County School District,00,1567864566,10336250
-81.05960,39.21040,US1WVRT0001,39.21040,-81.05960,265.20000,WV HARRISVILLE 0.5,54,01290,9700000US5401290,5401290,Ritchie County School District,00,1170648311,4425143
-80.95580,39.27360,US1WVRT0002,39.27360,-80.95580,344.70000,WV PENNSBORO 1.2,54,01290,9700000US5401290,5401290,Ritchie County School District,00,1170648311,4425143
-80.17860,39.37820,US1WVTA0003,39.37820,-80.17860,379.20000,WV BOOTHSVILLE 1.4,54,01380,9700000US5401380,5401380,Taylor County School District,00,447475066,7532835
-80.85710,39.47000,US1WVTY0003,39.47000,-80.85710,232.00000,WV MIDDLEBOURNE 3.2,54,01440,9700000US5401440,5401440,Tyler County School District,00,663797704,11403003
-80.88800,39.53700,US1WVTY0004,39.53700,-80.88800,224.00000,WV SISTERSVILLE 6.1,54,01440,9700000US5401440,5401440,Tyler County School District,00,663797704,11403003
-80.27230,38.84230,US1WVUP0001,38.84230,-80.27230,566.00000,WV ROCK CAVE 3.0,54,01470,9700000US5401470,5401470,Upshur County School District,00,918506895,302703
-80.13000,38.97690,US1WVUP0002,38.97690,-80.13000,607.20000,WV BUCKHANNON 5.2,54,01470,9700000US5401470,5401470,Upshur County School District,00,918506895,302703
-81.44080,39.23350,US1WVWD0001,39.23350,-81.44080,217.30000,WV DAVISVILLE 3.8,54,01620,9700000US5401620,5401620,Wood County School District,00,948609299,27211253
-81.51080,39.30010,US1WVWD0003,39.30010,-81.51080,271.00000,WV PARKERSBURG 3.0,54,01620,9700000US5401620,5401620,Wood County School District,00,948609299,27211253
-81.57920,39.16450,US1WVWD0005,39.16450,-81.57920,199.60000,WV MINERALWELLS 3.8,54,01620,9700000US5401620,5401620,Wood County School District,00,948609299,27211253
-81.55030,39.05660,US1WVWD0006,39.05660,-81.55030,325.20000,WV ROCKPORT 1.3,54,01620,9700000US5401620,5401620,Wood County School District,00,948609299,27211253
-81.45720,39.40280,US1WVWD0007,39.40280,-81.45720,195.10000,WV WILLIAMSTOWN 0.4,54,01620,9700000US5401620,5401620,Wood County School District,00,948609299,27211253
-81.56170,39.26670,US1WVWD0009,39.26670,-81.56170,187.50000,WV PARKERSBURG 1.0,54,01620,9700000US5401620,5401620,Wood County School District,00,948609299,27211253
-81.52230,39.33780,US1WVWD0011,39.33780,-81.52230,214.60000,WV VIENNA 1.3,54,01620,9700000US5401620,5401620,Wood County School District,00,948609299,27211253
-81.54990,39.32730,US1WVWD0012,39.32730,-81.54990,193.20000,WV VIENNA 0.7,54,01620,9700000US5401620,5401620,Wood County School District,00,948609299,27211253
-80.73820,39.64900,US1WVWT0001,39.64900,-80.73820,413.60000,WV NEW MARTINSVILLE 6.5,54,01560,9700000US5401560,5401560,Wetzel County School District,00,927380674,8458366
-82.41670,37.85000,USC00158397,37.85000,-82.41670,178.90000,KY WARFIELD,54,00900,9700000US5400900,5400900,Mingo County School District,00,1095914381,2190076
-79.06670,39.46670,USC00185530,39.46670,-79.06670,310.90000,MD LUKE,54,00870,9700000US5400870,5400870,Mineral County School District,00,849173056,3502975
-79.20000,39.38330,USC00188191,39.38330,-79.20000,519.10000,MD SHALLMAR,54,00870,9700000US5400870,5400870,Mineral County School District,00,849173056,3502975
-79.05000,39.48330,USC00189405,39.48330,-79.05000,305.10000,MD WESTERNPORT,54,00870,9700000US5400870,5400870,Mineral County School District,00,849173056,3502975
-79.05000,39.48330,USC00189409,39.48330,-79.05000,289.90000,MD WESTERNPORT UPRC,54,00870,9700000US5400870,5400870,Mineral County School District,00,849173056,3502975
-82.31670,38.45000,USC00336853,38.45000,-82.31670,171.00000,OH PROCTORVILLE DAM 27,54,00180,9700000US5400180,5400180,Cabell County School District,00,727838071,18122000
-81.86670,38.88330,USC00336912,38.88330,-81.86670,171.00000,OH RACINE DAM 23,54,00540,9700000US5400540,5400540,Jackson County School District,00,1202677932,18836099
-79.85000,39.71670,USC00361392,39.71670,-79.85000,274.30000,PA CHEAT HAVEN,54,00930,9700000US5400930,5400930,Monongalia School District,00,932572492,15051916
-80.30000,39.06670,USC00460012,39.06670,-80.30000,326.10000,WV ABERDEEN,54,01470,9700000US5401470,5401470,Upshur County School District,00,918506895,302703
-79.63690,39.48810,USC00460094,39.48810,-79.63690,371.60000,WV ALBRIGHT,54,01170,9700000US5401170,5401170,Preston County School District,00,1680406633,6681831
-80.65920,37.72720,USC00460102,37.72720,-80.65920,469.40000,WV ALDERSON,54,00960,9700000US5400960,5400960,Monroe County School District,00,1224422315,2298715
-80.21670,38.78330,USC00460107,38.78330,-80.21670,566.90000,WV ALEXANDER,54,01470,9700000US5401470,5401470,Upshur County School District,00,918506895,302703
-79.66670,38.91670,USC00460143,38.91670,-79.66670,921.10000,WV ALPENA 1,54,01260,9700000US5401260,5401260,Randolph County School District,00,-1602156446,667359
-80.66670,39.03330,USC00460170,39.03330,-80.66670,-999.90000,WV ALUM/BRIDGE LEWIS,54,00630,9700000US5400630,5400630,Lewis County School District,00,1002071716,7108412
-81.11780,38.12110,USC00460202,38.12110,-81.11780,395.00000,WV ANSTEAD HAWKS NEST SP,54,00300,9700000US5400300,5400300,Fayette County School District,00,1713494053,17519186
-79.81670,38.43330,USC00460249,38.43330,-79.81670,833.00000,WV ARBOVALE 2,54,01140,9700000US5401140,5401140,Pocahontas County School District,00,-1859645108,3978619
-80.51670,38.90000,USC00460307,38.90000,-80.51670,299.00000,WV ARNOLD,54,00630,9700000US5400630,5400630,Lewis County School District,00,1002071716,7108412
-81.02560,37.42250,USC00460355,37.42250,-81.02560,760.50000,WV ATHENS,54,00840,9700000US5400840,5400840,Mercer County School District,00,1085116214,4432246
-80.85000,39.09310,USC00460370,39.09310,-80.85000,281.90000,WV AUBURN,54,01290,9700000US5401290,5401290,Ritchie County School District,00,1170648311,4425143
-81.85000,38.51670,USC00460450,38.51670,-81.85000,175.00000,WV BANCROFT,54,01200,9700000US5401200,5401200,Putnam County School District,00,895302287,12226982
-79.77140,38.53110,USC00460509,38.53110,-79.77140,922.00000,WV BARTOW 1S,54,01140,9700000US5401140,5401140,Pocahontas County School District,00,-1859645108,3978619
-79.36830,39.27280,USC00460527,39.27280,-79.36830,735.20000,WV BAYARD,54,00360,9700000US5400360,5400360,Grant County School District,00,1236390684,7545524
-81.19390,37.76470,USC00460580,37.76470,-81.19390,710.20000,WV BECKLEY VA HOSPITAL,54,01230,9700000US5401230,5401230,Raleigh County School District,00,1567864566,10336250
-79.93310,39.02310,USC00460633,39.02310,-79.93310,539.20000,WV BELINGTON,54,00030,9700000US5400030,5400030,Barbour County School District,00,883338731,4639232
-81.18330,38.23330,USC00460661,38.23330,-81.18330,244.10000,WV BELVA,54,01020,9700000US5401020,5401020,Nicholas County School District,00,1675296013,19608975
-80.55000,39.15000,USC00460679,39.15000,-80.55000,328.90000,WV BENSON,54,00630,9700000US5400630,5400630,Lewis County School District,00,1002071716,7108412
-81.10000,39.46670,USC00460687,39.46670,-81.10000,195.10000,WV BENS RUN 1,54,01440,9700000US5401440,5401440,Tyler County School District,00,663797704,11403003
-78.21670,39.61670,USC00460710,39.61670,-78.21670,223.10000,WV BERKELEY SPRINGS,54,00990,9700000US5400990,5400990,Morgan County School District,00,593295476,1401570
-78.25030,39.57190,USC00460712,39.57190,-78.25030,285.00000,WV BERKELEY SPRINGS 3,54,00990,9700000US5400990,5400990,Morgan County School District,00,593295476,1401570
-80.35000,39.05000,USC00460718,39.05000,-80.35000,320.00000,WV BERLIN,54,00630,9700000US5400630,5400630,Lewis County School District,00,1002071716,7108412
-79.86670,38.85000,USC00460740,38.85000,-79.86670,685.80000,WV BEVERLY,54,01260,9700000US5401260,5401260,Randolph County School District,00,-1602156446,667359
-81.03280,38.60330,USC00460784,38.60330,-81.03280,266.70000,WV BIG OTTER,54,00240,9700000US5400240,5400240,Clay County School District,00,885617251,4862445
-80.43330,38.96670,USC00460824,38.96670,-80.43330,320.00000,WV BIG SKIN CREEK,54,00630,9700000US5400630,5400630,Lewis County School District,00,1002071716,7108412
-80.80220,38.49190,USC00460842,38.49190,-80.80220,454.20000,WV BIRCH RIVER 3,54,01020,9700000US5401020,5401020,Nicholas County School District,00,1675296013,19608975
-80.79310,38.45690,USC00460843,38.45690,-80.79310,655.30000,WV BIRCH RIVER 4,54,01020,9700000US5401020,5401020,Nicholas County School District,00,1675296013,19608975
-80.80000,38.40000,USC00460844,38.40000,-80.80000,576.10000,WV BIRCH RIVER 6,54,01020,9700000US5401020,5401020,Nicholas County School District,00,1675296013,19608975
-78.36670,39.40000,USC00460900,39.40000,-78.36670,-999.90000,WV BLOOMERY,54,00420,9700000US5400420,5400420,Hampshire County School District,00,1658614732,10922070
-81.26670,37.26670,USC00460918,37.26670,-81.26670,796.10000,WV BLUEFIELD 2,54,00840,9700000US5400840,5400840,Mercer County School District,00,1085116214,4432246
-81.21670,37.26670,USC00460923,37.26670,-81.21670,790.00000,WV BLUEFIELD 2,54,00840,9700000US5400840,5400840,Mercer County School District,00,1085116214,4432246
-81.22640,37.25560,USC00460925,37.25560,-81.22640,874.80000,WV BLUEFIELD,54,00840,9700000US5400840,5400840,Mercer County School District,00,1085116214,4432246
-81.20000,37.28330,USC00460926,37.28330,-81.20000,869.00000,WV BLUEFIELD MERCER CO,54,00840,9700000US5400840,5400840,Mercer County School District,00,1085116214,4432246
-80.88330,37.64140,USC00460939,37.64140,-80.88330,423.70000,WV BLUESTONE LAKE,54,01350,9700000US5401350,5401350,Summers County School District,00,933901347,18506974
-81.30000,37.33330,USC00461050,37.33330,-81.30000,701.00000,WV BRAMWELL,54,00840,9700000US5400840,5400840,Mercer County School District,00,1085116214,4432246
-82.20330,38.23470,USC00461075,38.23470,-82.20330,182.90000,WV BRANCHLAND 1,54,00660,9700000US5400660,5400660,Lincoln County School District,00,1131925075,4023478
-79.61670,39.66670,USC00461083,39.66670,-79.61670,548.00000,WV BRANDONVILLE,54,01170,9700000US5401170,5401170,Preston County School District,00,1680406633,6681831
-79.23330,38.61670,USC00461091,38.61670,-79.23330,502.90000,WV BRANDYWINE,54,01080,9700000US5401080,5401080,Pendleton County School District,00,1802751456,5437237
-80.48330,39.00000,USC00461173,39.00000,-80.48330,313.90000,WV BROWNSVILLE,54,00630,9700000US5400630,5400630,Lewis County School District,00,1002071716,7108412
-79.63330,39.66670,USC00461183,39.66670,-79.63330,472.10000,WV BRUCETON MILLS,54,01170,9700000US5401170,5401170,Preston County School District,00,1680406633,6681831
-80.21670,39.21670,USC00461196,39.21670,-80.21670,313.90000,WV BRUSHY FORK,54,00510,9700000US5400510,5400510,Harrison County School District,00,1077454917,1320319
-79.25000,38.83330,USC00461204,38.83330,-79.25000,419.10000,WV BRUSHY RUN,54,01080,9700000US5401080,5401080,Pendleton County School District,00,1802751456,5437237
-80.13360,38.18720,USC00461215,38.18720,-80.13360,655.30000,WV BUCKEYE,54,01140,9700000US5401140,5401140,Pocahontas County School District,00,-1859645108,3978619
-80.22000,38.98030,USC00461220,38.98030,-80.22000,443.50000,WV BUCKHANNON,54,01470,9700000US5401470,5401470,Upshur County School District,00,918506895,302703
-81.98470,38.60830,USC00461231,38.60830,-81.98470,176.80000,WV BUFFALO,54,01200,9700000US5401200,5401200,Putnam County School District,00,895302287,12226982
-78.90000,39.33330,USC00461260,39.33330,-78.90000,266.70000,WV BURLINGTON,54,00870,9700000US5400870,5400870,Mineral County School District,00,849173056,3502975
-80.62000,38.84580,USC00461282,38.84580,-80.62000,249.60000,WV BURNSVILLE LAKE,54,00120,9700000US5400120,5400120,Braxton County School District,00,1322996693,14144661
-80.40670,39.64670,USC00461290,39.64670,-80.40670,378.00000,WV BURTON,54,01560,9700000US5401560,5401560,Wetzel County School District,00,927380674,8458366
-82.35000,37.98330,USC00461319,37.98330,-82.35000,225.90000,WV CABWAYLINGO SF,54,01500,9700000US5401500,5401500,Wayne County School District,00,1310504122,15860720
-78.31580,39.50640,USC00461324,39.50640,-78.31580,289.60000,WV CACAPON ST PRK #,54,00990,9700000US5400990,5400990,Morgan County School District,00,593295476,1401570
-78.30000,39.51670,USC00461325,39.51670,-78.30000,335.30000,WV CACAPON STATE PARK (1),54,00990,9700000US5400990,5400990,Morgan County School District,00,593295476,1401570
-81.16670,39.16670,USC00461328,39.16670,-81.16670,207.00000,WV CAIRO 3,54,01290,9700000US5401290,5401290,Ritchie County School District,00,1170648311,4425143
-81.15720,39.20470,USC00461330,39.20470,-81.15720,231.60000,WV CAIRO,54,01290,9700000US5401290,5401290,Ritchie County School District,00,1170648311,4425143
-80.63330,38.51670,USC00461358,38.51670,-80.63330,618.40000,WV CAMDEN,54,01530,9700000US5401530,5401530,Webster County School District,00,1433477403,7148637
-80.62940,38.35670,USC00461363,38.35670,-80.62940,676.70000,WV CAMDEN ON GAULEY 2,54,01020,9700000US5401020,5401020,Nicholas County School District,00,1675296013,19608975
-79.41670,39.05000,USC00461393,39.05000,-79.41670,990.30000,WV CANAAN VALLEY,54,01410,9700000US5401410,5401410,Tucker County School District,00,1085094884,5528932
-79.44060,39.04830,USC00461397,39.04830,-79.44060,991.80000,WV CANAAN VALLEY 2,54,01410,9700000US5401410,5401410,Tucker County School District,00,1085094884,5528932
-80.36670,38.80000,USC00461515,38.80000,-80.36670,289.60000,WV CENTRAL STATION,54,01470,9700000US5401470,5401470,Upshur County School District,00,918506895,302703
-80.56640,38.62310,USC00461526,38.62310,-80.56640,313.90000,WV CENTRALIA,54,00120,9700000US5400120,5400120,Braxton County School District,00,1322996693,14144661
-81.65000,38.35000,USC00461575,38.35000,-81.65000,182.90000,WV CHARLESTON 1,54,00600,9700000US5400600,5400600,Kanawha County School District,00,-1959751630,24056487
-81.71860,38.31390,USC00461579,38.31390,-81.71860,279.80000,WV CHARLESTON WSFO,54,00600,9700000US5400600,5400600,Kanawha County School District,00,-1959751630,24056487
-81.63330,38.35000,USC00461585,38.35000,-81.63330,182.90000,WV CHARLESTON 3,54,00600,9700000US5400600,5400600,Kanawha County School District,00,-1959751630,24056487
-77.83440,39.29810,USC00461588,39.29810,-77.83440,158.50000,WV CHARLES TOWN 2,54,00570,9700000US5400570,5400570,Jefferson County School District,00,543006593,5216623
-79.87720,38.61060,USC00461591,38.61060,-79.87720,1086.60000,WV CHEAT BRG,54,01260,9700000US5401260,5401260,Randolph County School District,00,-1602156446,667359
-80.55000,40.61670,USC00461609,40.61670,-80.55000,213.40000,WV CHESTER,54,00450,9700000US5400450,5400450,Hancock County School District,00,213957141,13879330
-80.35220,39.26830,USC00461677,39.26830,-80.35220,301.80000,WV CLARKSBURG 1,54,00510,9700000US5400510,5400510,Harrison County School District,00,1077454917,1320319
-80.33330,39.28330,USC00461682,39.28330,-80.33330,305.10000,WV CLARKSBURG 2,54,00510,9700000US5400510,5400510,Harrison County School District,00,1077454917,1320319
-81.08500,38.45970,USC00461696,38.45970,-81.08500,222.50000,WV CLAY,54,00240,9700000US5400240,5400240,Clay County School District,00,885617251,4862445
-81.06670,38.46670,USC00461701,38.46670,-81.06670,207.00000,WV CLAY 2,54,00240,9700000US5400240,5400240,Clay County School District,00,885617251,4862445
-81.34830,38.49330,USC00461723,38.49330,-81.34830,213.40000,WV CLENDENIN,54,00600,9700000US5400600,5400600,Kanawha County School District,00,-1959751630,24056487
-81.65000,37.38330,USC00461798,37.38330,-81.65000,442.00000,WV COALWOOD,54,00810,9700000US5400810,5400810,McDowell County School District,00,1381646921,3733264
-80.43330,39.25000,USC00461806,39.25000,-80.43330,328.90000,WV COBURN CREEK,54,00510,9700000US5400510,5400510,Harrison County School District,00,1077454917,1320319
-79.77190,39.67720,USC00461900,39.67720,-79.77190,694.90000,WV COOPERS ROCK SF,54,01170,9700000US5401170,5401170,Preston County School District,00,1680406633,6681831
-79.43330,39.08330,USC00461940,39.08330,-79.43330,1005.80000,WV CORTLAND,54,01410,9700000US5401410,5401410,Tucker County School District,00,1085094884,5528932
-81.27110,38.48640,USC00461959,38.48640,-81.27110,195.10000,WV CORTON,54,00600,9700000US5400600,5400600,Kanawha County School District,00,-1959751630,24056487
-80.26670,38.18330,USC00462013,38.18330,-80.26670,1036.90000,WV CRANBERRY GLADES,54,01140,9700000US5401140,5401140,Pocahontas County School District,00,-1859645108,3978619
-80.43330,38.86670,USC00462022,38.86670,-80.43330,338.90000,WV CRAWFORD,54,00630,9700000US5400630,5400630,Lewis County School District,00,1002071716,7108412
-81.27280,38.96280,USC00462054,38.96280,-81.27280,198.10000,WV CRESTON,54,01590,9700000US5401590,5401590,Wirt County School District,00,602201080,5839706
-81.66670,38.96670,USC00462095,38.96670,-81.66670,198.10000,WV CUBA,54,00540,9700000US5400540,5400540,Jackson County School District,00,1202677932,18836099
-79.89110,38.78250,USC00462151,38.78250,-79.89110,609.60000,WV DAILEY 1,54,01260,9700000US5401260,5401260,Randolph County School District,00,-1602156446,667359
-79.46670,39.13330,USC00462209,39.13330,-79.46670,951.90000,WV DAVIS,54,01410,9700000US5401410,5401410,Tucker County School District,00,1085094884,5528932
-79.43220,39.09810,USC00462211,39.09810,-79.43220,1132.30000,WV DAVIS 3SE,54,01410,9700000US5401410,5401410,Tucker County School District,00,1085094884,5528932
-79.50000,39.00000,USC00462212,39.00000,-79.50000,1005.80000,WV DAVIS 2,54,01410,9700000US5401410,5401410,Tucker County School District,00,1085094884,5528932
-80.40000,39.26670,USC00462217,39.26670,-80.40000,305.10000,WV DAVISSON RUN,54,00510,9700000US5400510,5400510,Harrison County School District,00,1077454917,1320319
-80.81670,38.50000,USC00462358,38.50000,-80.81670,390.10000,WV DILLE 1,54,01020,9700000US5401020,5401020,Nicholas County School District,00,1675296013,19608975
-81.46310,37.86000,USC00462462,37.86000,-81.46310,385.30000,WV DRY CREEK,54,01230,9700000US5401230,5401230,Raleigh County School District,00,1567864566,10336250
-80.40000,39.15000,USC00462488,39.15000,-80.40000,326.10000,WV DUCK CREEK,54,00510,9700000US5400510,5400510,Harrison County School District,00,1077454917,1320319
-82.33330,37.98330,USC00462520,37.98330,-82.33330,335.90000,WV DUNLOW 5,54,01500,9700000US5401500,5401500,Wayne County School District,00,1310504122,15860720
-82.40470,37.94970,USC00462522,37.94970,-82.40470,365.80000,WV DUNLOW 1,54,01500,9700000US5401500,5401500,Wayne County School District,00,1310504122,15860720
-79.76670,38.55000,USC00462552,38.55000,-79.76670,830.30000,WV DURBIN,54,01140,9700000US5401140,5401140,Pocahontas County School District,00,-1859645108,3978619
-81.61670,39.20000,USC00462590,39.20000,-81.61670,781.20000,WV EAST BANK,54,01620,9700000US5401620,5401620,Wood County School District,00,948609299,27211253
-82.38280,38.14360,USC00462622,38.14360,-82.38280,201.80000,WV E LYNN LAKE,54,01500,9700000US5401500,5401500,Wayne County School District,00,1310504122,15860720
-80.75000,38.00000,USC00462638,38.00000,-80.75000,737.90000,WV EAST RAINELLE 3,54,00390,9700000US5400390,5400390,Greenbrier County School District,00,-1654077674,12578200
-82.46670,38.18330,USC00462650,38.18330,-82.46670,304.80000,WV ECHO,54,01500,9700000US5401500,5401500,Wayne County School District,00,1310504122,15860720
-81.40000,39.11670,USC00462695,39.11670,-81.40000,187.50000,WV ELIZABETH,54,01590,9700000US5401590,5401590,Wirt County School District,00,602201080,5839706
-81.40220,39.06140,USC00462697,39.06140,-81.40220,196.00000,WV ELIZABETH,54,01590,9700000US5401590,5401590,Wirt County School District,00,602201080,5839706
-80.23330,39.18330,USC00462701,39.18330,-80.23330,305.10000,WV ELK,54,00510,9700000US5400510,5400510,Harrison County School District,00,1077454917,1320319
-81.40530,37.38720,USC00462709,37.38720,-81.40530,593.80000,WV ELKHORN,54,00810,9700000US5400810,5400810,McDowell County School District,00,1381646921,3733264
-79.86110,38.92440,USC00462716,38.92440,-79.86110,596.80000,WV ELKINS,54,01260,9700000US5401260,5401260,Randolph County School District,00,-1602156446,667359
-79.82940,38.92670,USC00462717,38.92670,-79.82940,611.10000,WV ELKINS 1N,54,01260,9700000US5401260,5401260,Randolph County School District,00,-1602156446,667359
-80.81670,39.73330,USC00462735,39.73330,-80.81670,-999.90000,WV ELLA,54,00750,9700000US5400750,5400750,Marshall County School District,00,791063503,17411500
-81.06670,39.26670,USC00462746,39.26670,-81.06670,241.10000,WV ELLENBORO,54,01290,9700000US5401290,5401290,Ritchie County School District,00,1170648311,4425143
-81.75000,38.80000,USC00462860,38.80000,-81.75000,243.80000,WV EVANS,54,00540,9700000US5400540,5400540,Jackson County School District,00,1202677932,18836099
-80.36670,38.90000,USC00462875,38.90000,-80.36670,987.60000,WV EVENWOOD,54,00630,9700000US5400630,5400630,Lewis County School District,00,1002071716,7108412
-80.13330,39.46670,USC00462920,39.46670,-80.13330,396.20000,WV FAIRMONT,54,00720,9700000US5400720,5400720,Marion County School District,00,799642461,7186185
-80.26670,39.00000,USC00463024,39.00000,-80.26670,433.10000,WV FINK RUN,54,01470,9700000US5401470,5401470,Upshur County School District,00,918506895,302703
-81.09250,37.58940,USC00463072,37.58940,-81.09250,1016.50000,WV FLAT TOP,54,01350,9700000US5401350,5401350,Summers County School District,00,933901347,18506974
-80.13330,39.26670,USC00463100,39.26670,-80.13330,-999.90000,WV FLEMINGTON,54,01380,9700000US5401380,5401380,Taylor County School District,00,447475066,7532835
-79.30920,38.67560,USC00463215,38.67560,-79.30920,579.10000,WV FRANKLIN 2,54,01080,9700000US5401080,5401080,Pendleton County School District,00,1802751456,5437237
-80.45060,39.13030,USC00463238,39.13030,-80.45060,310.90000,WV FREEMANSBURG 5,54,00630,9700000US5400630,5400630,Lewis County School District,00,1002071716,7108412
-79.81810,38.28690,USC00463251,38.28690,-79.81810,885.40000,WV FROST 3NE,54,01140,9700000US5401140,5401140,Pocahontas County School District,00,-1859645108,3978619
-81.55000,37.36670,USC00463353,37.36670,-81.55000,435.90000,WV GARY,54,00810,9700000US5400810,5400810,McDowell County School District,00,1381646921,3733264
-80.76720,38.66500,USC00463361,38.66500,-80.76720,258.50000,WV GASSAWAY,54,00120,9700000US5400120,5400120,Braxton County School District,00,1322996693,14144661
-79.71720,38.80720,USC00463464,38.80720,-79.71720,865.60000,WV GLADY 1,54,01260,9700000US5401260,5401260,Randolph County School District,00,-1602156446,667359
-80.83170,38.93390,USC00463544,38.93390,-80.83170,220.40000,WV GLENVILLE,54,00330,9700000US5400330,5400330,Gilmer County School District,00,876717634,4082111
-80.02810,39.34390,USC00463627,39.34390,-80.02810,339.20000,WV GRAFTON,54,01380,9700000US5401380,5401380,Taylor County School District,00,447475066,7532835
-80.00000,39.35000,USC00463630,39.35000,-80.00000,374.90000,WV GRAFTON 1,54,01380,9700000US5401380,5401380,Taylor County School District,00,447475066,7532835
-81.08440,38.91000,USC00463648,38.91000,-81.08440,217.30000,WV GRANTSVILLE 1ESE,54,00210,9700000US5400210,5400210,Calhoun County School District,00,723252434,3704539
-80.86670,37.81670,USC00463672,37.81670,-80.86670,487.70000,WV GREEN SULPHUR SPRINGS,54,01350,9700000US5401350,5401350,Summers County School District,00,933901347,18506974
-80.52780,38.74330,USC00463675,38.74330,-80.52780,265.20000,WV GREGORY,54,00120,9700000US5400120,5400120,Braxton County School District,00,1322996693,14144661
-81.98530,38.23810,USC00463749,38.23810,-81.98530,237.70000,WV GRIFFITHSVILLE,54,00660,9700000US5400660,5400660,Lincoln County School District,00,1131925075,4023478
-80.43330,39.13330,USC00463793,39.13330,-80.43330,310.90000,WV HACKERS CREEK,54,00630,9700000US5400630,5400630,Lewis County School District,00,1002071716,7108412
-80.38220,38.61940,USC00463798,38.61940,-80.38220,484.60000,WV HACKER VALLEY,54,01530,9700000US5401530,5401530,Webster County School District,00,1433477403,7148637
-80.11670,39.05000,USC00463816,39.05000,-80.11670,420.90000,WV HALL,54,00030,9700000US5400030,5400030,Barbour County School District,00,883338731,4639232
-82.11140,38.27940,USC00463846,38.27940,-82.11140,207.30000,WV HAMLIN,54,00660,9700000US5400660,5400660,Lincoln County School District,00,1131925075,4023478
-77.73330,39.31670,USC00463932,39.31670,-77.73330,88.10000,WV HARPERS FERRY NP,54,00570,9700000US5400570,5400570,Jefferson County School District,00,543006593,5216623
-79.20000,39.36670,USC00463935,39.36670,-79.20000,519.10000,WV HARRISON,54,00870,9700000US5400870,5400870,Mineral County School District,00,849173056,3502975
-81.04860,39.21890,USC00463940,39.21890,-81.04860,250.90000,WV HARRISVILLE,54,01290,9700000US5401290,5401290,Ritchie County School District,00,1170648311,4425143
-80.66670,39.55000,USC00463974,39.55000,-80.66670,232.00000,WV HASTINGS,54,01560,9700000US5401560,5401560,Wetzel County School District,00,927380674,8458366
-80.00000,38.50000,USC00464045,38.50000,-80.00000,-999.90000,WV HELVETIA,54,01260,9700000US5401260,5401260,Randolph County School District,00,-1602156446,667359
-81.86670,37.93330,USC00464085,37.93330,-81.86670,-999.90000,WV HEWETT,54,00690,9700000US5400690,5400690,Logan County School District,00,1175209778,4830034
-81.00810,38.12250,USC00464128,38.12250,-81.00810,713.20000,WV HICO,54,00300,9700000US5400300,5400300,Fayette County School District,00,1713494053,17519186
-80.88330,37.66670,USC00464170,37.66670,-80.88330,435.90000,WV HINTON 1,54,01350,9700000US5401350,5401350,Summers County School District,00,933901347,18506974
-80.88330,37.66670,USC00464175,37.66670,-80.88330,415.10000,WV HINTON 2,54,01350,9700000US5401350,5401350,Summers County School District,00,933901347,18506974
-82.18360,38.68440,USC00464200,38.68440,-82.18360,173.70000,WV HOGSETT RC BYRD DAM,54,00780,9700000US5400780,5400780,Mason County School District,00,1115633279,36174541
-80.43330,38.30000,USC00464230,38.30000,-80.43330,622.40000,WV HOLCOMB,54,01530,9700000US5401530,5401530,Webster County School District,00,1433477403,7148637
-79.51670,39.43330,USC00464264,39.43330,-79.51670,759.00000,WV HOPEMONT,54,01170,9700000US5401170,5401170,Preston County School District,00,1680406633,6681831
-80.36670,38.98330,USC00464281,38.98330,-80.36670,328.90000,WV HORNER,54,00630,9700000US5400630,5400630,Lewis County School District,00,1002071716,7108412
-80.45000,38.80000,USC00464292,38.80000,-80.45000,865.60000,WV HORTON,54,00630,9700000US5400630,5400630,Lewis County School District,00,1002071716,7108412
-80.13330,39.50000,USC00464309,39.50000,-80.13330,267.90000,WV HOULT LOCK 15,54,00720,9700000US5400720,5400720,Marion County School District,00,799642461,7186185
-80.46670,39.70000,USC00464369,39.70000,-80.46670,304.80000,WV HUNDRED,54,01560,9700000US5401560,5401560,Wetzel County School District,00,927380674,8458366
-80.45000,39.70000,USC00464372,39.70000,-80.45000,320.00000,WV HUNDRED 1,54,01560,9700000US5401560,5401560,Wetzel County School District,00,927380674,8458366
-82.36670,38.41670,USC00464378,38.41670,-82.36670,207.00000,WV HUNTINGTON 1,54,00180,9700000US5400180,5400180,Cabell County School District,00,727838071,18122000
-82.43330,38.41670,USC00464383,38.41670,-82.43330,182.90000,WV HUNTINGTON 2,54,00180,9700000US5400180,5400180,Cabell County School District,00,727838071,18122000
-82.45000,38.41670,USC00464388,38.41670,-82.45000,172.20000,WV HUNTINGTON FEDERAL BLD,54,00180,9700000US5400180,5400180,Cabell County School District,00,727838071,18122000
-82.52670,38.40140,USC00464397,38.40140,-82.52670,158.50000,WV HUNTINGTON SWG PL,54,01500,9700000US5401500,5401500,Wayne County School District,00,1310504122,15860720
-81.82360,37.45030,USC00464408,37.45030,-81.82360,326.10000,WV IAEGER 1SW,54,00810,9700000US5400810,5400810,McDowell County School District,00,1381646921,3733264
-80.80000,37.56670,USC00464430,37.56670,-80.80000,-999.90000,WV INDIAN MILLS,54,01350,9700000US5401350,5401350,Summers County School District,00,933901347,18506974
-81.66670,38.38330,USC00464455,38.38330,-81.66670,184.70000,WV INST WERTZ FLD,54,00600,9700000US5400600,5400600,Kanawha County School District,00,-1959751630,24056487
-78.05000,39.36670,USC00464470,39.36670,-78.05000,174.00000,WV INWOOD,54,00060,9700000US5400060,5400060,Berkeley County School District,00,831766637,1061824
-80.46670,38.81670,USC00464478,38.81670,-80.46670,348.10000,WV IRELAND,54,00630,9700000US5400630,5400630,Lewis County School District,00,1002071716,7108412
-80.50000,39.20000,USC00464499,39.20000,-80.50000,323.10000,WV ISAACS CREEK,54,00510,9700000US5400510,5400510,Harrison County School District,00,1077454917,1320319
-80.41670,39.11670,USC00464559,39.11670,-80.41670,307.80000,WV JANE LEW,54,00630,9700000US5400630,5400630,Lewis County School District,00,1002071716,7108412
-80.33330,39.10000,USC00464619,39.10000,-80.33330,342.00000,WV JESSE RUN,54,00630,9700000US5400630,5400630,Lewis County School District,00,1002071716,7108412
-81.13330,38.23330,USC00464631,38.23330,-81.13330,235.00000,WV JODIE,54,00300,9700000US5400300,5400300,Fayette County School District,00,1713494053,17519186
-78.86670,39.31670,USC00464697,39.31670,-78.86670,244.10000,WV JUNCTION,54,00420,9700000US5400420,5400420,Hampshire County School District,00,1658614732,10922070
-81.21440,38.13810,USC00464727,38.13810,-81.21440,189.00000,WV KANAWHA FALLS,54,00300,9700000US5400300,5400300,Fayette County School District,00,1713494053,17519186
-81.45000,38.01670,USC00464755,38.01670,-81.45000,409.00000,WV KAYFORD,54,00600,9700000US5400600,5400600,Kanawha County School District,00,-1959751630,24056487
-77.88330,39.38330,USC00464763,39.38330,-77.88330,167.60000,WV KEARNEYSVILLE,54,00570,9700000US5400570,5400570,Jefferson County School District,00,543006593,5216623
-82.40000,37.83330,USC00464816,37.83330,-82.40000,189.00000,WV KERMIT,54,00900,9700000US5400900,5400900,Mingo County School District,00,1095914381,2190076
-78.98330,39.43330,USC00464836,39.43330,-78.98330,284.10000,WV KEYSER,54,00870,9700000US5400870,5400870,Mineral County School District,00,849173056,3502975
-79.00500,39.42060,USC00464840,39.42060,-79.00500,274.30000,WV KEYSER 2,54,00870,9700000US5400870,5400870,Mineral County School District,00,849173056,3502975
-81.30000,37.95000,USC00464884,37.95000,-81.30000,451.40000,WV KINGSTON,54,00300,9700000US5400300,5400300,Fayette County School District,00,1713494053,17519186
-79.68330,39.46670,USC00464897,39.46670,-79.68330,566.90000,WV KINGWOOD,54,01170,9700000US5401170,5401170,Preston County School District,00,1680406633,6681831
-79.00000,39.36670,USC00464941,39.36670,-79.00000,409.00000,WV KNOBLY MTN,54,00870,9700000US5400870,5400870,Mineral County School District,00,849173056,3502975
-81.58330,37.73330,USC00464956,37.73330,-81.58330,506.00000,WV KOPPERSTON,54,01650,9700000US5401650,5401650,Wyoming County School District,00,1293577262,6126986
-80.08560,38.63110,USC00464971,38.63110,-80.08560,981.50000,WV KUMBRABOW,54,01260,9700000US5401260,5401260,Randolph County School District,00,-1602156446,667359
-80.50000,39.28330,USC00464994,39.28330,-80.50000,338.90000,WV LAKE FLOYD,54,00510,9700000US5400510,5400510,Harrison County School District,00,1077454917,1320319
-79.85610,39.72030,USC00465002,39.72030,-79.85610,274.30000,WV LAKE LYNN,54,00930,9700000US5400930,5400930,Monongalia School District,00,932572492,15051916
-82.08330,38.95000,USC00465010,38.95000,-82.08330,189.00000,WV LAKIN,54,00780,9700000US5400780,5400780,Mason County School District,00,1115633279,36174541
-81.50000,39.10000,USC00465030,39.10000,-81.50000,-999.90000,WV LEACHTOWN,54,01620,9700000US5401620,5401620,Wood County School District,00,948609299,27211253
-80.40000,38.06670,USC00465045,38.06670,-80.40000,1293.00000,WV LEONARD,54,00390,9700000US5400390,5400390,Greenbrier County School District,00,-1654077674,12578200
-82.28780,38.56970,USC00465051,38.56970,-82.28780,175.30000,WV LESAGE 5,54,00180,9700000US5400180,5400180,Cabell County School District,00,727838071,18122000
-82.28330,38.55000,USC00465055,38.55000,-82.28330,167.60000,WV LESAGE GREENBOTTOM,54,00180,9700000US5400180,5400180,Cabell County School District,00,727838071,18122000
-80.40420,37.85670,USC00465224,37.85670,-80.40420,701.00000,WV LEWISBURG 3,54,00390,9700000US5400390,5400390,Greenbrier County School District,00,-1654077674,12578200
-80.65560,37.47970,USC00465284,37.47970,-80.65560,605.00000,WV LINDSIDE,54,00960,9700000US5400960,5400960,Monroe County School District,00,1224422315,2298715
-80.41670,38.96670,USC00465314,38.96670,-80.41670,326.10000,WV LITTLE SKIN CREEK,54,00630,9700000US5400630,5400630,Lewis County School District,00,1002071716,7108412
-81.53110,38.89560,USC00465323,38.89560,-81.53110,202.70000,WV LIVERPOOL,54,00540,9700000US5400540,5400540,Jackson County School District,00,1202677932,18836099
-80.96670,38.85000,USC00465341,38.85000,-80.96670,219.50000,WV LOCKNEY,54,00330,9700000US5400330,5400330,Gilmer County School District,00,876717634,4082111
-81.98440,37.86610,USC00465353,37.86610,-81.98440,204.80000,WV LOGAN,54,00690,9700000US5400690,5400690,Logan County School District,00,1175209778,4830034
-81.37000,38.19360,USC00465365,38.19360,-81.37000,189.00000,WV LONDON LOCKS,54,00600,9700000US5400600,5400600,Kanawha County School District,00,-1959751630,24056487
-80.96670,38.06670,USC00465400,38.06670,-80.96670,702.00000,WV LOOKOUT 2,54,00300,9700000US5400300,5400300,Fayette County School District,00,1713494053,17519186
-78.83330,38.96670,USC00465440,38.96670,-78.83330,365.80000,WV LOST CITY,54,00480,9700000US5400480,5400480,Hardy County School District,00,1508194649,5617193
-80.41670,39.20000,USC00465445,39.20000,-80.41670,304.80000,WV LOST CREEK NEAR,54,00510,9700000US5400510,5400510,Harrison County School District,00,1077454917,1320319
-78.79810,38.94530,USC00465453,38.94530,-78.79810,515.10000,WV LOST RVR,54,00480,9700000US5400480,5400480,Hardy County School District,00,1508194649,5617193
-78.86670,38.86670,USC00465455,38.86670,-78.86670,609.60000,WV LOST RIVER STATE PARK,54,00480,9700000US5400480,5400480,Hardy County School District,00,1508194649,5617193
-81.20000,39.08330,USC00465547,39.08330,-81.20000,203.90000,WV MACFARLAN,54,01290,9700000US5401290,5401290,Ritchie County School District,00,1170648311,4425143
-81.84640,38.10250,USC00465563,38.10250,-81.84640,216.40000,WV MADISON 3NNW,54,00090,9700000US5400090,5400090,Boone County School District,00,1298967375,4305976
-81.88720,37.74470,USC00465600,37.74470,-81.88720,223.10000,WV MAN,54,00690,9700000US5400690,5400690,Logan County School District,00,1175209778,4830034
-80.35000,39.55000,USC00465621,39.55000,-80.35000,299.00000,WV MANNINGTON 1,54,00720,9700000US5400720,5400720,Marion County School District,00,799642461,7186185
-80.46470,39.54360,USC00465626,39.54360,-80.46470,335.30000,WV MANNINGTON 8,54,00720,9700000US5400720,5400720,Marion County School District,00,799642461,7186185
-80.09140,38.21750,USC00465672,38.21750,-80.09140,655.30000,WV MARLINTON,54,01140,9700000US5401140,5401140,Pocahontas County School District,00,-1859645108,3978619
-77.95000,39.45000,USC00465705,39.45000,-77.95000,132.60000,WV MARTINSBURG (1),54,00060,9700000US5400060,5400060,Berkeley County School District,00,831766637,1061824
-77.96690,39.46580,USC00465706,39.46580,-77.96690,164.60000,WV MARTINSBURG 2,54,00060,9700000US5400060,5400060,Berkeley County School District,00,831766637,1061824
-78.86170,38.87220,USC00465739,38.87220,-78.86170,469.40000,WV MATHIAS,54,00480,9700000US5400480,5400480,Hardy County School District,00,1508194649,5617193
-81.25000,37.41670,USC00465747,37.41670,-81.25000,762.90000,WV MATOAKA,54,00840,9700000US5400840,5400840,Mercer County School District,00,1085116214,4432246
-80.73330,39.98330,USC00465847,39.98330,-80.73330,200.90000,WV MC MECHEN DAM 13,54,00750,9700000US5400750,5400750,Marshall County School District,00,791063503,17411500
-78.90000,39.15000,USC00465855,39.15000,-78.90000,244.10000,WV MC NEILL 2,54,00480,9700000US5400480,5400480,Hardy County School District,00,1508194649,5617193
-80.75000,37.98330,USC00465871,37.98330,-80.75000,745.50000,WV MCROSS,54,00390,9700000US5400390,5400390,Greenbrier County School District,00,-1654077674,12578200
-80.68000,37.98920,USC00465875,37.98920,-80.68000,975.40000,WV MCROSS 3,54,00390,9700000US5400390,5400390,Greenbrier County School District,00,-1654077674,12578200
-80.66670,37.88330,USC00465886,37.88330,-80.66670,747.10000,WV MEADOW BLUFF 2,54,00390,9700000US5400390,5400390,Greenbrier County School District,00,-1654077674,12578200
-80.85720,39.47000,USC00465963,39.47000,-80.85720,223.70000,WV MIDDLEBOURNE 3,54,01440,9700000US5401440,5401440,Tyler County School District,00,663797704,11403003
-80.18330,38.51670,USC00465970,38.51670,-80.18330,-999.90000,WV MIDDLEBROOK,54,01260,9700000US5401260,5401260,Randolph County School District,00,-1602156446,667359
-80.08330,38.95000,USC00465984,38.95000,-80.08330,552.00000,WV MIDVALE,54,01470,9700000US5401470,5401470,Upshur County School District,00,918506895,302703
-81.38330,38.25000,USC00466140,38.25000,-81.38330,-999.90000,WV MONARCH,54,00600,9700000US5400600,5400600,Kanawha County School District,00,-1959751630,24056487
-78.96640,39.04610,USC00466163,39.04610,-78.96640,271.30000,WV MOOREFIELD 1,54,00480,9700000US5400480,5400480,Hardy County School District,00,1508194649,5617193
-78.85000,39.20000,USC00466168,39.20000,-78.85000,262.10000,WV MOOREFIELD MC NEILL,54,00420,9700000US5400420,5400420,Hampshire County School District,00,1658614732,10922070
-80.10000,39.66670,USC00466178,39.66670,-80.10000,-999.90000,WV MOORESVILLE,54,00930,9700000US5400930,5400930,Monongalia School District,00,932572492,15051916
-79.95000,39.63330,USC00466207,39.63330,-79.95000,320.00000,WV MORGANTOWN 1,54,00930,9700000US5400930,5400930,Monongalia School District,00,932572492,15051916
-79.96970,39.62030,USC00466212,39.62030,-79.96970,251.50000,WV MORGANTOWN L&D,54,00930,9700000US5400930,5400930,Monongalia School District,00,932572492,15051916
-80.75500,39.90560,USC00466248,39.90560,-80.75500,189.00000,WV MOUNDSVILLE,54,00750,9700000US5400750,5400750,Marshall County School District,00,791063503,17411500
-80.33330,39.21670,USC00466276,39.21670,-80.33330,317.00000,WV MT CLARE,54,00510,9700000US5400510,5400510,Harrison County School District,00,1077454917,1320319
-80.84830,38.18780,USC00466284,38.18780,-80.84830,594.40000,WV MT NEBO 1,54,01020,9700000US5401020,5401020,Nicholas County School District,00,1675296013,19608975
-79.23330,39.28330,USC00466293,39.28330,-79.23330,869.00000,WV MT STORM,54,00360,9700000US5400360,5400360,Grant County School District,00,1236390684,7545524
-81.32720,37.57830,USC00466325,37.57830,-81.32720,476.70000,WV MULLENS 3,54,01650,9700000US5401650,5401650,Wyoming County School District,00,1293577262,6126986
-82.13330,38.21670,USC00466343,38.21670,-82.13330,213.40000,WV MYRA,54,00660,9700000US5400660,5400660,Lincoln County School District,00,1131925075,4023478
-81.48330,37.86670,USC00466362,37.86670,-81.48330,369.10000,WV NAOMA,54,01230,9700000US5401230,5401230,Raleigh County School District,00,1567864566,10336250
-80.85000,39.68330,USC00466467,39.68330,-80.85000,214.00000,WV NEW MARTINSVILLE 4,54,01560,9700000US5401560,5401560,Wetzel County School District,00,927380674,8458366
-81.20000,38.58330,USC00466480,38.58330,-81.20000,-999.90000,WV NEWTON,54,01320,9700000US5401320,5401320,Roane County School District,00,1252422377,404682
-81.01670,38.06670,USC00466565,38.06670,-81.01670,686.40000,WV NUTTALLBURG,54,00300,9700000US5400300,5400300,Fayette County School District,00,1713494053,17519186
-81.15080,37.97140,USC00466591,37.97140,-81.15080,621.80000,WV OAK HILL,54,00300,9700000US5400300,5400300,Fayette County School District,00,1713494053,17519186
-81.62140,37.67610,USC00466600,37.67610,-81.62140,402.30000,WV OCEANA 2,54,01650,9700000US5401650,5401650,Wyoming County School District,00,1293577262,6126986
-81.63330,37.68330,USC00466602,37.68330,-81.63330,365.80000,WV OCEANA 1,54,01650,9700000US5401650,5401650,Wyoming County School District,00,1293577262,6126986
-78.28330,39.50000,USC00466674,39.50000,-78.28330,289.90000,WV OMPS,54,00990,9700000US5400990,5400990,Morgan County School District,00,593295476,1401570
-80.50000,37.70000,USC00466725,37.70000,-80.50000,678.20000,WV ORGAN CAVE,54,00390,9700000US5400390,5400390,Greenbrier County School District,00,-1654077674,12578200
-79.63330,38.71670,USC00466743,38.71670,-79.63330,1097.30000,WV OSCEOLA (1),54,01260,9700000US5401260,5401260,Randolph County School District,00,-1602156446,667359
-79.63390,39.07360,USC00466867,39.07360,-79.63390,541.00000,WV PARSONS 1,54,01410,9700000US5401410,5401410,Tucker County School District,00,1085094884,5528932
-79.68330,39.10000,USC00466868,39.10000,-79.68330,580.00000,WV PARSONS 2,54,01410,9700000US5401410,5401410,Tucker County School District,00,1085094884,5528932
-79.68330,39.11670,USC00466871,39.11670,-79.68330,487.70000,WV PARSONS 2,54,01410,9700000US5401410,5401410,Tucker County School District,00,1085094884,5528932
-81.90810,37.34530,USC00466900,37.34530,-81.90810,615.70000,WV PAYNESVILLE 1,54,00810,9700000US5400810,5400810,McDowell County School District,00,1381646921,3733264
-82.29860,38.41970,USC00466912,38.41970,-82.29860,174.70000,WV PEA RIDGE PSD,54,00180,9700000US5400180,5400180,Cabell County School District,00,727838071,18122000
-80.96670,39.28330,USC00466920,39.28330,-80.96670,-999.90000,WV PENNSBORO,54,01290,9700000US5401290,5401290,Ritchie County School District,00,1170648311,4425143
-78.66670,39.00000,USC00466940,39.00000,-78.66670,446.50000,WV PERRY,54,00480,9700000US5400480,5400480,Hardy County School District,00,1508194649,5617193
-79.13610,38.99890,USC00466952,38.99890,-79.13610,295.00000,WV PETERSBURG,54,00360,9700000US5400360,5400360,Grant County School District,00,1236390684,7545524
-79.16670,38.96670,USC00466956,38.96670,-79.16670,366.10000,WV PETERSBURG 3,54,00360,9700000US5400360,5400360,Grant County School District,00,1236390684,7545524
-79.20000,38.88330,USC00466960,38.88330,-79.20000,342.90000,WV PETERSBURG 9,54,00360,9700000US5400360,5400360,Grant County School District,00,1236390684,7545524
-80.04110,39.14610,USC00466982,39.14610,-80.04110,396.20000,WV PHILIPPI,54,00030,9700000US5400030,5400030,Barbour County School District,00,883338731,4639232
-80.19580,38.67890,USC00466989,38.67890,-80.19580,877.80000,WV PICKENS 2,54,01260,9700000US5401260,5401260,Randolph County School District,00,-1602156446,667359
-80.21670,38.66670,USC00466991,38.66670,-80.21670,844.30000,WV PICKENS 1,54,01260,9700000US5401260,5401260,Randolph County School District,00,-1602156446,667359
-80.21670,38.65000,USC00466996,38.65000,-80.21670,823.90000,WV PICKENS 2,54,01260,9700000US5401260,5401260,Randolph County School District,00,-1602156446,667359
-80.21670,38.61670,USC00466998,38.61670,-80.21670,1021.10000,WV PICKENS 2,54,01260,9700000US5401260,5401260,Randolph County School District,00,-1602156446,667359
-80.18330,38.61670,USC00467001,38.61670,-80.18330,1066.50000,WV PICKENS 4,54,01260,9700000US5401260,5401260,Randolph County School District,00,-1602156446,667359
-80.70140,40.14780,USC00467018,40.14780,-80.70140,195.10000,WV PIKE ISLAND L&D,54,01050,9700000US5401050,5401050,Ohio County School District,00,274098955,8274300
-81.53560,37.57420,USC00467029,37.57420,-81.53560,402.30000,WV PINEVILLE,54,01650,9700000US5401650,5401650,Wyoming County School District,00,1293577262,6126986
-79.53330,39.51670,USC00467055,39.51670,-79.53330,-999.90000,WV PLEASANT HILL PRESTON,54,01170,9700000US5401170,5401170,Preston County School District,00,1680406633,6681831
-82.13330,38.85000,USC00467105,38.85000,-82.13330,174.00000,WV POINT PLEASANT,54,00780,9700000US5400780,5400780,Mason County School District,00,1115633279,36174541
-82.06670,38.91670,USC00467110,38.91670,-82.06670,192.00000,WV POINT PLEASANT 6,54,00780,9700000US5400780,5400780,Mason County School District,00,1115633279,36174541
-82.11670,38.91670,USC00467112,38.91670,-82.11670,185.90000,WV POINT PLEASANT 5,54,00780,9700000US5400780,5400780,Mason County School District,00,1115633279,36174541
-80.56670,39.05000,USC00467115,39.05000,-80.56670,326.10000,WV POLK CREEK,54,00630,9700000US5400630,5400630,Lewis County School District,00,1002071716,7108412
-81.31670,38.08330,USC00467135,38.08330,-81.31670,275.50000,WV POWELLTON,54,00300,9700000US5400300,5400300,Fayette County School District,00,1713494053,17519186
-81.08220,37.38420,USC00467207,37.38420,-81.08220,722.40000,WV PRINCETON,54,00840,9700000US5400840,5400840,Mercer County School District,00,1085116214,4432246
-81.91110,38.91860,USC00467287,38.91860,-81.91110,177.10000,WV RACINE L&D,54,00780,9700000US5400780,5400780,Mason County School District,00,1115633279,36174541
-80.78330,37.96670,USC00467306,37.96670,-80.78330,737.90000,WV RAINELLE,54,00390,9700000US5400390,5400390,Greenbrier County School District,00,-1654077674,12578200
-81.16670,37.76670,USC00467320,37.76670,-81.16670,649.20000,WV RALEIGH,54,01230,9700000US5401230,5401230,Raleigh County School District,00,1567864566,10336250
-77.92030,39.32470,USC00467342,39.32470,-77.92030,170.70000,WV RANSON 4NW,54,00570,9700000US5400570,5400570,Jefferson County School District,00,543006593,5216623
-81.76670,38.95000,USC00467352,38.95000,-81.76670,177.10000,WV RAVENSWOOD LOCK PARK,54,00540,9700000US5400540,5400540,Jackson County School District,00,1202677932,18836099
-81.82030,37.59720,USC00467372,37.59720,-81.82030,426.70000,WV RD BAILEY LAKE,54,01650,9700000US5401650,5401650,Wyoming County School District,00,1293577262,6126986
-79.78330,39.50000,USC00467425,39.50000,-79.78330,521.20000,WV REEDSVILLE,54,01170,9700000US5401170,5401170,Preston County School District,00,1680406633,6681831
-79.83330,39.50000,USC00467427,39.50000,-79.83330,537.10000,WV REEDSVILLE EXP FARM,54,01170,9700000US5401170,5401170,Preston County School District,00,1680406633,6681831
-80.35000,37.96670,USC00467444,37.96670,-80.35000,580.00000,WV RENICK 2,54,00390,9700000US5400390,5400390,Greenbrier County School District,00,-1654077674,12578200
-80.36670,38.00000,USC00467449,38.00000,-80.36670,655.90000,WV RENICK 2,54,00390,9700000US5400390,5400390,Greenbrier County School District,00,-1654077674,12578200
-80.36440,37.99140,USC00467455,37.99140,-80.36440,634.00000,WV RENICK 3,54,00390,9700000US5400390,5400390,Greenbrier County School District,00,-1654077674,12578200
-80.55000,38.25000,USC00467502,38.25000,-80.55000,668.10000,WV RICHWOOD,54,01020,9700000US5401020,5401020,Nicholas County School District,00,1675296013,19608975
-80.55000,38.23330,USC00467503,38.23330,-80.55000,732.10000,WV RICHWOOD,54,01020,9700000US5401020,5401020,Nicholas County School District,00,1675296013,19608975
-80.51670,38.26670,USC00467504,38.26670,-80.51670,929.90000,WV RICHWOOD 3,54,01020,9700000US5401020,5401020,Nicholas County School District,00,1675296013,19608975
-80.51670,38.20000,USC00467505,38.20000,-80.51670,954.30000,WV RICHWOOD 1,54,00390,9700000US5400390,5400390,Greenbrier County School District,00,-1654077674,12578200
-80.52060,38.20610,USC00467513,38.20610,-80.52060,941.80000,WV RICHWOOD 1SSE,54,00390,9700000US5400390,5400390,Greenbrier County School District,00,-1654077674,12578200
-80.33330,38.95000,USC00467536,38.95000,-80.33330,331.90000,WV RT FORK OF STONECOAL,54,01470,9700000US5401470,5401470,Upshur County School District,00,918506895,302703
-81.71190,38.81720,USC00467552,38.81720,-81.71190,179.80000,WV RIPLEY,54,00540,9700000US5400540,5400540,Jackson County School District,00,1202677932,18836099
-80.48330,38.93330,USC00467598,38.93330,-80.48330,320.00000,WV ROANOKE,54,00630,9700000US5400630,5400630,Lewis County School District,00,1002071716,7108412
-81.96670,38.65000,USC00467614,38.65000,-81.96670,174.00000,WV ROBERTSBURG,54,01200,9700000US5401200,5401200,Putnam County School District,00,895302287,12226982
-80.30750,38.85610,USC00467649,38.85610,-80.30750,533.10000,WV ROCK CAVE 2,54,01470,9700000US5401470,5401470,Upshur County School District,00,918506895,302703
-80.33330,39.13330,USC00467658,39.13330,-80.33330,317.00000,WV ROCKFORD,54,00510,9700000US5400510,5400510,Harrison County School District,00,1077454917,1320319
-80.50000,38.98330,USC00467718,38.98330,-80.50000,317.00000,WV ROHRBOUGH,54,00630,9700000US5400630,5400630,Lewis County School District,00,1002071716,7108412
-78.77280,39.33890,USC00467730,39.33890,-78.77280,219.50000,WV ROMNEY 1,54,00420,9700000US5400420,5400420,Hampshire County School District,00,1658614732,10922070
-80.96360,38.77780,USC00467743,38.77780,-80.96360,228.60000,WV ROSEDALE 3,54,00330,9700000US5400330,5400330,Gilmer County School District,00,876717634,4082111
-79.66970,39.34190,USC00467785,39.34190,-79.66970,433.70000,WV ROWLESBURG 1,54,01170,9700000US5401170,5401170,Preston County School District,00,1680406633,6681831
-81.46670,38.65000,USC00467846,38.65000,-81.46670,207.30000,WV RYAN,54,01320,9700000US5401320,5401320,Roane County School District,00,1252422377,404682
-81.83390,38.38330,USC00467852,38.38330,-81.83390,196.90000,WV SAINT ALBANS,54,00600,9700000US5400600,5400600,Kanawha County School District,00,-1959751630,24056487
-81.20000,39.38330,USC00467875,39.38330,-81.20000,198.10000,WV ST MARYS,54,01110,9700000US5401110,5401110,Pleasants County School District,00,336965607,11510007
-80.56670,39.28330,USC00467883,39.28330,-80.56670,320.00000,WV SALEM,54,00510,9700000US5400510,5400510,Harrison County School District,00,1077454917,1320319
-80.58330,39.30000,USC00467884,39.30000,-80.58330,342.00000,WV SALEM JACOBS RUN 1,54,00510,9700000US5400510,5400510,Harrison County School District,00,1077454917,1320319
-80.56670,39.30000,USC00467885,39.30000,-80.56670,326.10000,WV SALEM JACOBS RUN 2,54,00510,9700000US5400510,5400510,Harrison County School District,00,1077454917,1320319
-80.55000,39.26670,USC00467886,39.26670,-80.55000,326.10000,WV SALEM PATTERSON FORK J,54,00510,9700000US5400510,5400510,Harrison County School District,00,1077454917,1320319
-80.56670,39.25000,USC00467887,39.25000,-80.56670,348.10000,WV SALEM PATTERSON LEFT F,54,00510,9700000US5400510,5400510,Harrison County School District,00,1077454917,1320319
-80.58330,39.26670,USC00467888,39.26670,-80.58330,351.10000,WV SALEM PATTERSON RIGHT,54,00510,9700000US5400510,5400510,Harrison County School District,00,1077454917,1320319
-80.43330,38.91670,USC00467901,38.91670,-80.43330,328.90000,WV SAND FORK,54,00630,9700000US5400630,5400630,Lewis County School District,00,1002071716,7108412
-81.56580,38.98170,USC00467918,38.98170,-81.56580,195.10000,WV SANDYVILLE 9,54,00540,9700000US5400540,5400540,Jackson County School District,00,1202677932,18836099
-81.66670,38.91670,USC00467920,38.91670,-81.66670,180.40000,WV SANDYVILLE,54,00540,9700000US5400540,5400540,Jackson County School District,00,1202677932,18836099
-79.92500,38.33330,USC00468051,38.33330,-79.92500,746.80000,WV SENECA SF 1N,54,01140,9700000US5401140,5401140,Pocahontas County School District,00,-1859645108,3978619
-81.05000,37.70000,USC00468083,37.70000,-81.05000,811.10000,WV SHADY SPRINGS 2,54,01230,9700000US5401230,5401230,Raleigh County School District,00,1567864566,10336250
-81.78330,37.91670,USC00468100,37.91670,-81.78330,271.00000,WV SHARPLES,54,00690,9700000US5400690,5400690,Logan County School District,00,1175209778,4830034
-80.30000,39.38330,USC00468145,39.38330,-80.30000,278.00000,WV SHINNSTON,54,00510,9700000US5400510,5400510,Harrison County School District,00,1077454917,1320319
-79.63330,38.71670,USC00468172,38.71670,-79.63330,1067.10000,WV SINKS OF GANDY,54,01260,9700000US5401260,5401260,Randolph County School District,00,-1602156446,667359
-81.63330,38.53330,USC00468190,38.53330,-81.63330,181.10000,WV SISSONVILLE,54,00600,9700000US5400600,5400600,Kanawha County School District,00,-1959751630,24056487
-81.64530,38.51690,USC00468191,38.51690,-81.64530,187.50000,WV SISSONVILLE 1SW,54,00600,9700000US5400600,5400600,Kanawha County School District,00,-1959751630,24056487
-80.11670,38.41670,USC00468220,38.41670,-80.11670,853.10000,WV SLATYFORK,54,01140,9700000US5401140,5401140,Pocahontas County School District,00,-1859645108,3978619
-80.73330,39.28330,USC00468274,39.28330,-80.73330,246.90000,WV SMITHBURG,54,00270,9700000US5400270,5400270,Doddridge County School District,00,828070519,1958441
-80.63330,39.53330,USC00468282,39.53330,-80.63330,259.10000,WV SMITHFIELD,54,01560,9700000US5401560,5401560,Wetzel County School District,00,927380674,8458366
-81.09890,39.07280,USC00468286,39.07280,-81.09890,231.60000,WV SMITHVILLE,54,01290,9700000US5401290,5401290,Ritchie County School District,00,1170648311,4425143
-80.66670,37.88330,USC00468295,37.88330,-80.66670,747.10000,WV SMOOT,54,00390,9700000US5400390,5400390,Greenbrier County School District,00,-1654077674,12578200
-79.99500,38.39890,USC00468308,38.39890,-79.99500,1478.30000,WV SNOWSHOE,54,01140,9700000US5401140,5401140,Pocahontas County School District,00,-1859645108,3978619
-81.70000,38.36670,USC00468345,38.36670,-81.70000,182.30000,WV S CHARLESTON LOCK 6,54,00600,9700000US5400600,5400600,Kanawha County School District,00,-1959751630,24056487
-81.98080,38.75060,USC00468351,38.75060,-81.98080,175.60000,WV SOUTHSIDE 3,54,00780,9700000US5400780,5400780,Mason County School District,00,1115633279,36174541
-81.35830,38.80080,USC00468384,38.80080,-81.35830,293.80000,WV SPENCER,54,01320,9700000US5401320,5401320,Roane County School District,00,1252422377,404682
-78.70000,39.46670,USC00468409,39.46670,-78.70000,244.10000,WV SPRINGFIELD 1,54,00420,9700000US5400420,5400420,Hampshire County School District,00,1658614732,10922070
-79.53330,38.70000,USC00468432,38.70000,-79.53330,1388.10000,WV SPRUCE KNOB,54,01080,9700000US5401080,5401080,Pendleton County School District,00,1802751456,5437237
-79.51670,38.68330,USC00468433,38.68330,-79.51670,929.90000,WV SPRUCE KNOB,54,01080,9700000US5401080,5401080,Pendleton County School District,00,1802751456,5437237
-80.47390,39.00470,USC00468522,39.00470,-80.47390,318.50000,WV STONEWALL JACKSON DAM,54,00630,9700000US5400630,5400630,Lewis County School District,00,1002071716,7108412
-79.30000,39.13330,USC00468536,39.13330,-79.30000,1036.90000,WV STONY RIVER DAM,54,00360,9700000US5400360,5400360,Grant County School District,00,1236390684,7545524
-79.28330,39.16670,USC00468538,39.16670,-79.28330,990.90000,WV STONY RIVER DAM 2,54,00360,9700000US5400360,5400360,Grant County School District,00,1236390684,7545524
-80.41670,38.83330,USC00468580,38.83330,-80.41670,360.00000,WV SUGARCAMP RUN,54,00630,9700000US5400630,5400630,Lewis County School District,00,1002071716,7108412
-79.27580,38.57000,USC00468589,38.57000,-79.27580,533.40000,WV SUGAR GROVE 4,54,01080,9700000US5401080,5401080,Pendleton County School District,00,1802751456,5437237
-80.83330,38.28330,USC00468608,38.28330,-80.83330,588.90000,WV SUMMERSVILLE,54,01020,9700000US5401020,5401020,Nicholas County School District,00,1675296013,19608975
-80.89390,38.22000,USC00468614,38.22000,-80.89390,538.90000,WV SUMMERSVILLE LAKE,54,01020,9700000US5401020,5401020,Nicholas County School District,00,1675296013,19608975
-80.70000,38.66670,USC00468652,38.66670,-80.70000,274.90000,WV SUTTON,54,00120,9700000US5400120,5400120,Braxton County School District,00,1322996693,14144661
-80.69690,38.66110,USC00468662,38.66110,-80.69690,254.50000,WV SUTTON LAKE,54,00120,9700000US5400120,5400120,Braxton County School District,00,1322996693,14144661
-80.66670,38.65000,USC00468667,38.65000,-80.66670,412.10000,WV SUTTON 3,54,00120,9700000US5400120,5400120,Braxton County School District,00,1322996693,14144661
-80.41670,39.23330,USC00468699,39.23330,-80.41670,305.10000,WV SYCAMORE CREEK,54,00510,9700000US5400510,5400510,Harrison County School District,00,1077454917,1320319
-79.63330,39.51670,USC00468730,39.51670,-79.63330,-999.90000,WV TANNERY,54,01170,9700000US5401170,5401170,Preston County School District,00,1680406633,6681831
-79.54690,39.44670,USC00468777,39.44670,-79.54690,801.60000,WV TERRA ALTA #1,54,01170,9700000US5401170,5401170,Preston County School District,00,1680406633,6681831
-79.55000,39.45000,USC00468782,39.45000,-79.55000,790.00000,WV TERRA ALTA,54,01170,9700000US5401170,5401170,Preston County School District,00,1680406633,6681831
-79.50000,39.15000,USC00468807,39.15000,-79.50000,917.40000,WV THOMAS,54,01410,9700000US5401410,5401410,Tucker County School District,00,1085094884,5528932
-79.75000,38.55000,USC00468819,38.55000,-79.75000,899.20000,WV THORNWOOD,54,01140,9700000US5401140,5401140,Pocahontas County School District,00,-1859645108,3978619
-81.08330,37.95000,USC00468844,37.95000,-81.08330,326.10000,WV THURMOND,54,00300,9700000US5400300,5400300,Fayette County School District,00,1713494053,17519186
-81.84970,38.36140,USC00468893,38.36140,-81.84970,335.30000,WV TORNADO 2,54,00600,9700000US5400600,5400600,Kanawha County School District,00,-1959751630,24056487
-79.78330,38.55000,USC00468905,38.55000,-79.78330,853.40000,WV TRAVELER'S REPOSE,54,01140,9700000US5401140,5401140,Pocahontas County School District,00,-1859645108,3978619
-81.85000,38.70000,USC00468924,38.70000,-81.85000,213.40000,WV TRIBBLE,54,00780,9700000US5400780,5400780,Mason County School District,00,1115633279,36174541
-80.03000,39.31330,USC00468986,39.31330,-80.03000,376.40000,WV TYGART DAM,54,01380,9700000US5401380,5401380,Taylor County School District,00,447475066,7532835
-80.53360,37.54360,USC00469011,37.54360,-80.53360,643.10000,WV UNION 3,54,00960,9700000US5400960,5400960,Monroe County School District,00,1224422315,2298715
-80.43330,39.26670,USC00469036,39.26670,-80.43330,328.90000,WV UPPER DAVISSON RUN,54,00510,9700000US5400510,5400510,Harrison County School District,00,1077454917,1320319
-80.45000,39.23330,USC00469044,39.23330,-80.45000,326.10000,WV UPPER SYCAMORE CREEK,54,00510,9700000US5400510,5400510,Harrison County School District,00,1077454917,1320319
-79.28330,38.78330,USC00469049,38.78330,-79.28330,469.40000,WV UPPER TRACT,54,01080,9700000US5401080,5401080,Pendleton County School District,00,1802751456,5437237
-79.91670,38.76670,USC00469068,38.76670,-79.91670,613.00000,WV VALLEY BEND,54,01260,9700000US5401260,5401260,Randolph County School District,00,-1602156446,667359
-80.40000,39.10000,USC00469072,39.10000,-80.40000,307.80000,WV VALLEY CHAPEL,54,00630,9700000US5400630,5400630,Lewis County School District,00,1002071716,7108412
-81.11780,38.52500,USC00469078,38.52500,-81.11780,312.10000,WV VALLEY FORK,54,00240,9700000US5400240,5400240,Clay County School District,00,885617251,4862445
-80.03690,38.54530,USC00469086,38.54530,-80.03690,739.10000,WV VALLEY HEAD,54,01260,9700000US5401260,5401260,Randolph County School District,00,-1602156446,667359
-80.40000,38.93330,USC00469104,38.93330,-80.40000,335.90000,WV VANDALIA,54,00630,9700000US5400630,5400630,Lewis County School District,00,1002071716,7108412
-81.53330,39.35000,USC00469168,39.35000,-81.53330,192.00000,WV VIENNA BRISCOE,54,01620,9700000US5401620,5401620,Wood County School District,00,948609299,27211253
-81.67170,37.30830,USC00469275,37.30830,-81.67170,442.00000,WV WAR 1,54,00810,9700000US5400810,5400810,McDowell County School District,00,1381646921,3733264
-78.58080,39.10580,USC00469281,39.10580,-78.58080,292.60000,WV WARDENSVILLE R M FARM,54,00480,9700000US5400480,5400480,Hardy County School District,00,1508194649,5617193
-82.43330,38.21670,USC00469321,38.21670,-82.43330,182.90000,WV WAYNE,54,01500,9700000US5401500,5401500,Wayne County School District,00,1310504122,15860720
-82.44310,38.22610,USC00469323,38.22610,-82.44310,182.90000,WV WAYNE 2,54,01500,9700000US5401500,5401500,Wayne County School District,00,1310504122,15860720
-80.40860,38.47390,USC00469333,38.47390,-80.40860,461.50000,WV WEBSTER SPRINGS,54,01530,9700000US5401530,5401530,Webster County School District,00,1433477403,7148637
-80.41690,38.53580,USC00469336,38.53580,-80.41690,563.90000,WV WEBSTER SPRINGS 8,54,01530,9700000US5401530,5401530,Webster County School District,00,1433477403,7148637
-80.60000,40.40000,USC00469345,40.40000,-80.60000,317.00000,WV WEIRTON,54,00450,9700000US5400450,5400450,Hancock County School District,00,213957141,13879330
-81.61610,37.42030,USC00469355,37.42030,-81.61610,429.80000,WV WELCH,54,00810,9700000US5400810,5400810,McDowell County School District,00,1381646921,3733264
-80.61190,40.27530,USC00469368,40.27530,-80.61190,201.20000,WV WELLSBURG WTR TRMT PL,54,00150,9700000US5400150,5400150,Brooke County School District,00,231034166,8714144
-81.98330,37.86670,USC00469416,37.86670,-81.98330,195.10000,WV WEST LOGAN,54,00690,9700000US5400690,5400690,Logan County School District,00,1175209778,4830034
-80.40000,39.20000,USC00469428,39.20000,-80.40000,298.40000,WV WEST MILFORD,54,00510,9700000US5400510,5400510,Harrison County School District,00,1077454917,1320319
-80.47250,39.04390,USC00469436,39.04390,-80.47250,311.80000,WV WESTON,54,00630,9700000US5400630,5400630,Lewis County School District,00,1002071716,7108412
-80.78330,39.30000,USC00469450,39.30000,-80.78330,305.10000,WV WEST UNION,54,00270,9700000US5400270,5400270,Doddridge County School District,00,828070519,1958441
-80.76860,39.29060,USC00469458,39.29060,-80.76860,240.80000,WV W UNION 2,54,00270,9700000US5400270,5400270,Doddridge County School District,00,828070519,1958441
-80.72830,40.05670,USC00469482,40.05670,-80.72830,196.60000,WV WHEELING,54,01050,9700000US5401050,5401050,Ohio County School District,00,274098955,8274300
-80.73330,40.06970,USC00469483,40.06970,-80.73330,196.60000,WV WHEELING (1),54,01050,9700000US5401050,5401050,Ohio County School District,00,274098955,8274300
-80.70000,40.11670,USC00469484,40.11670,-80.70000,202.70000,WV WHEELING FLTR PLT,54,01050,9700000US5401050,5401050,Ohio County School District,00,274098955,8274300
-80.70000,40.10000,USC00469492,40.10000,-80.70000,200.90000,WV WHEELING WARWOOD DAM,54,01050,9700000US5401050,5401050,Ohio County School District,00,274098955,8274300
-80.30830,37.78860,USC00469522,37.78860,-80.30830,585.50000,WV WHITE SULPHUR SPRINGS,54,00390,9700000US5400390,5400390,Greenbrier County School District,00,-1654077674,12578200
-81.54280,37.98750,USC00469527,37.98750,-81.54280,250.90000,WV WHITESVILLE,54,00090,9700000US5400090,5400090,Boone County School District,00,1298967375,4305976
-80.86670,38.46670,USC00469554,38.46670,-80.86670,348.10000,WV WIDEN,54,00240,9700000US5400240,5400240,Clay County School District,00,885617251,4862445
-82.27610,37.67310,USC00469610,37.67310,-82.27610,231.60000,WV WILLIAMSON,54,00900,9700000US5400900,5400900,Mingo County School District,00,1095914381,2190076
-82.25610,37.68780,USC00469613,37.68780,-82.25610,457.20000,WV WILLIAMSON 2,54,00900,9700000US5400900,5400900,Mingo County School District,00,1095914381,2190076
-81.91530,38.52780,USC00469683,38.52780,-81.91530,186.20000,WV WINFIELD LOCKS,54,01200,9700000US5401200,5401200,Putnam County School District,00,895302287,12226982
-79.61670,38.90000,USC00469785,38.90000,-79.61670,987.60000,WV WYMER,54,01260,9700000US5401260,5401260,Randolph County School District,00,-1602156446,667359
-81.96670,38.23330,USC00469805,38.23330,-81.96670,192.00000,WV YAWKEY,54,00660,9700000US5400660,5400660,Lincoln County School District,00,1131925075,4023478
-81.06780,37.83250,USR0000VVIE,37.83250,-81.06780,917.40000,WV GRANDVIEW WEST VIRGINIA,54,01230,9700000US5401230,5401230,Raleigh County School District,00,1567864566,10336250
-79.47420,39.01310,USW00003733,39.01310,-79.47420,1033.30000,WV ELKINS 21,54,01410,9700000US5401410,5401410,Tucker County School District,00,1085094884,5528932
-80.22890,39.29560,USW00003802,39.29560,-80.22890,366.70000,WV CLARKSBURG BENEDUM AP,54,00510,9700000US5400510,5400510,Harrison County School District,00,1077454917,1320319
-81.43920,39.34500,USW00003804,39.34500,-81.43920,253.30000,WV PARKERSBURG WOOD CO AP,54,01620,9700000US5401620,5401620,Wood County School District,00,948609299,27211253
-81.20780,37.29580,USW00003859,37.29580,-81.20780,874.80000,WV BLUEFIELD MERCER CO AP,54,00840,9700000US5400840,5400840,Mercer County School District,00,1085116214,4432246
-82.55500,38.36500,USW00003860,38.36500,-82.55500,251.20000,WV HUNTINGTON TRI STATE AP,54,01500,9700000US5401500,5401500,Wayne County School District,00,1310504122,15860720
-81.12310,37.78360,USW00003872,37.78360,-81.12310,766.30000,WV BECKLEY RALEIGH CO AP,54,01230,9700000US5401230,5401230,Raleigh County School District,00,1567864566,10336250
-79.85280,38.88530,USW00013729,38.88530,-79.85280,603.20000,WV ELKINS RANDOLPH CO AP,54,01260,9700000US5401260,5401260,Randolph County School District,00,-1602156446,667359
-77.98440,39.40190,USW00013734,39.40190,-77.98440,162.80000,WV MARTINSBURG E WV RGNL AP,54,00060,9700000US5400060,5400060,Berkeley County School District,00,831766637,1061824
-79.91640,39.64280,USW00013736,39.64280,-79.91640,378.00000,WV MORGANTOWN HART FLD,54,00930,9700000US5400930,5400930,Monongalia School District,00,932572492,15051916
-79.11670,39.00000,USW00013738,39.00000,-79.11670,307.80000,WV PETERSBURG WB CITY,54,00360,9700000US5400360,5400360,Grant County School District,00,1236390684,7545524
-81.59000,38.37940,USW00013866,38.37940,-81.59000,277.40000,WV CHARLESTON YEAGER AP,54,00600,9700000US5400600,5400600,Kanawha County School District,00,-1959751630,24056487
-81.55720,39.28110,USW00013867,39.28110,-81.55720,189.00000,WV PARKERSBURG,54,01620,9700000US5401620,5401620,Wood County School District,00,948609299,27211253
-80.64720,40.17640,USW00014894,40.17640,-80.64720,359.40000,WV WHEELING OHIO CO AP,54,01050,9700000US5401050,5401050,Ohio County School District,00,274098955,8274300
